H1 CPF 01  gfz 2022 04 20 00  6101 tandemx   
H2 1003001  6202 36605    2022 04 20 00 59 42 2022 04 25 00 00 42   120 1 1  0 0 0
H9
10 0 59692  42462.000000  0    -800420.117   5952823.784  -3382457.727
10 0 59692  42582.000000  0    -662518.914   6361611.756  -2568775.146
10 0 59692  42702.000000  0    -506906.520   6656920.133  -1709990.795
10 0 59692  42822.000000  0    -338323.508   6833225.931   -821155.752
10 0 59692  42942.000000  0    -161820.472   6887178.240     82120.442
10 0 59692  43062.000000  0      17370.266   6817671.185    983949.963
10 0 59692  43182.000000  0     193967.436   6625871.851   1868455.466
10 0 59692  43302.000000  0     362774.067   6315200.281   2720059.317
10 0 59692  43422.000000  0     518808.198   5891264.406   3523764.952
10 0 59692  43542.000000  0     657428.537   5361753.313   4265426.291
10 0 59692  43662.000000  0     774452.200   4736291.590   4932003.654
10 0 59692  43782.000000  0     866258.869   4026248.701   5511794.412
10 0 59692  43902.000000  0     929882.761   3244523.821   5994632.970
10 0 59692  44022.000000  0     963088.544   2405303.803   6372065.271
10 0 59692  44142.000000  0     964428.914   1523799.438   6637491.188
10 0 59692  44262.000000  0     933284.237    615965.489   6786274.069
10 0 59692  44382.000000  0     869883.253   -301789.055   6815815.717
10 0 59692  44502.000000  0     775304.275  -1212896.348   6725600.017
10 0 59692  44622.000000  0     651456.741  -2100928.971   6517202.053
10 0 59692  44742.000000  0     501043.296  -2949896.221   6194262.848
10 0 59692  44862.000000  0     327503.059  -3744534.367   5762428.441
10 0 59692  44982.000000  0     134937.734  -4470581.955   5229254.459
10 0 59692  45102.000000  0     -71977.880  -5115039.005   4604081.190
10 0 59692  45222.000000  0    -288100.426  -5666408.461   3897877.464
10 0 59692  45342.000000  0    -507936.693  -6114911.974   3123051.092
10 0 59692  45462.000000  0    -725772.836  -6452673.419   2293231.398
10 0 59692  45582.000000  0    -935809.952  -6673865.882   1423027.118
10 0 59692  45702.000000  0   -1132304.471  -6774821.331    527765.346
10 0 59692  45822.000000  0   -1309710.239  -6754096.424   -376787.629
10 0 59692  45942.000000  0   -1462815.909  -6612491.583  -1274713.339
10 0 59692  46062.000000  0   -1586875.391  -6353025.302  -2150229.635
10 0 59692  46182.000000  0   -1677728.692  -5980864.868  -2987975.022
10 0 59692  46302.000000  0   -1731910.159  -5503214.756  -3773283.493
10 0 59692  46422.000000  0   -1746740.919  -4929165.285  -4492442.985
10 0 59692  46542.000000  0   -1720403.349  -4269507.298  -5132931.611
10 0 59692  46662.000000  0   -1651996.727  -3536518.995  -5683628.824
10 0 59692  46782.000000  0   -1541572.997  -2743729.623  -6134999.608
10 0 59692  46902.000000  0   -1390151.952  -1905664.268  -6479249.197
10 0 59692  47022.000000  0   -1199716.115  -1037575.747  -6710445.706
10 0 59692  47142.000000  0    -973186.240   -155169.233  -6824611.700
10 0 59692  47262.000000  0    -714377.100    725676.871  -6819784.647
10 0 59692  47382.000000  0    -427933.815   1589189.151  -6696046.470
10 0 59692  47502.000000  0    -119251.160   2419974.018  -6455522.208
10 0 59692  47622.000000  0     205624.073   3203285.955  -6102349.198
10 0 59692  47742.000000  0     540108.073   3925286.928  -5642614.295
10 0 59692  47862.000000  0     877208.651   4573290.215  -5084258.390
10 0 59692  47982.000000  0    1209665.866   5135986.886  -4436951.439
10 0 59692  48102.000000  0    1530103.287   5603651.103  -3711935.733
10 0 59692  48222.000000  0    1831186.302   5968317.788  -2921839.255
10 0 59692  48342.000000  0    2105784.114   6223929.983  -2080462.198
10 0 59692  48462.000000  0    2347132.199   6366451.986  -1202538.172
10 0 59692  48582.000000  0    2548990.813   6393943.361   -303473.787
10 0 59692  48702.000000  0    2705795.312   6306590.950    600927.188
10 0 59692  48822.000000  0    2812794.245   6106698.241   1494748.617
10 0 59692  48942.000000  0    2866171.643   5798632.739   2362250.186
10 0 59692  49062.000000  0    2863150.700   5388732.034   3188152.808
10 0 59692  49182.000000  0    2802076.294   4885170.570   3957915.188
10 0 59692  49302.000000  0    2682474.021   4297791.504   4657996.014
10 0 59692  49422.000000  0    2505081.855   3637904.564   5276096.320
10 0 59692  49542.000000  0    2271856.337   2918058.776   5801372.307
10 0 59692  49662.000000  0    1985955.729   2151797.880   6224621.011
10 0 59692  49782.000000  0    1651697.581   1353400.307   6538437.637
10 0 59692  49902.000000  0    1274491.764    537608.541   6737338.662
10 0 59692  50022.000000  0     860751.529   -280643.567   6817850.688
10 0 59692  50142.000000  0     417784.158  -1086503.048   6778568.727
10 0 59692  50262.000000  0     -46338.414  -1865467.944   6620179.766
10 0 59692  50382.000000  0    -522926.909  -2603648.253   6345451.086
10 0 59692  50502.000000  0   -1002836.758  -3288014.478   5959183.561
10 0 59692  50622.000000  0   -1476640.774  -3906628.119   5468131.245
10 0 59692  50742.000000  0   -1934812.566  -4448852.914   4880891.192
10 0 59692  50862.000000  0   -2367918.816  -4905544.603   4207760.730
10 0 59692  50982.000000  0   -2766815.349  -5269214.054   3460561.387
10 0 59692  51102.000000  0   -3122840.848  -5534157.855   2652431.492
10 0 59692  51222.000000  0   -3428003.990  -5696553.320   1797593.797
10 0 59692  51342.000000  0   -3675160.646  -5754517.402    911101.611
10 0 59692  51462.000000  0   -3858176.582  -5708126.804      8567.455
10 0 59692  51582.000000  0   -3972071.310  -5559398.752   -894119.816
10 0 59692  51702.000000  0   -4013139.145  -5312232.282  -1781084.204
10 0 59692  51822.000000  0   -3979044.021  -4972310.767  -2636750.550
10 0 59692  51942.000000  0   -3868885.811  -4546969.080  -3446124.443
10 0 59692  52062.000000  0   -3683236.567  -4045029.799  -4195057.625
10 0 59692  52182.000000  0   -3424147.013  -3476613.825  -4870493.849
10 0 59692  52302.000000  0   -3095123.847  -2852930.036  -5460691.764
10 0 59692  52422.000000  0   -2701078.803  -2186048.977  -5955420.660
10 0 59692  52542.000000  0   -2248251.384  -1488666.530  -6346127.827
10 0 59692  52662.000000  0   -1744105.954   -773861.224  -6626075.565
10 0 59692  52782.000000  0   -1197206.417    -54850.661  -6790445.202
10 0 59692  52902.000000  0    -617072.072    655247.778  -6836409.817
10 0 59692  53022.000000  0     -14015.006   1343649.920  -6763177.862
10 0 59692  53142.000000  0     601037.977   1998128.605  -6572005.084
10 0 59692  53262.000000  0    1216738.071   2607226.045  -6266177.798
10 0 59692  53382.000000  0    1821519.989   3160452.045  -5850962.520
10 0 59692  53502.000000  0    2403814.935   3648464.468  -5333524.090
10 0 59692  53622.000000  0    2952269.240   4063228.520  -4722813.135
10 0 59692  53742.000000  0    3455965.008   4398154.404  -4029423.132
10 0 59692  53862.000000  0    3904638.996   4648209.234  -3265416.731
10 0 59692  53982.000000  0    4288895.304   4809999.918  -2444123.008
10 0 59692  54102.000000  0    4600405.230   4881823.955  -1579908.198
10 0 59692  54222.000000  0    4832091.055   4863688.535   -687925.213
10 0 59692  54342.000000  0    4978288.203   4757294.145    216156.673
10 0 59692  54462.000000  0    5034878.846   4565983.629   1116433.289
10 0 59692  54582.000000  0    4999396.813   4294659.462   1997052.238
10 0 59692  54702.000000  0    4871101.042   3949669.172   2842501.322
10 0 59692  54822.000000  0    4651012.106   3538660.500   3637891.191
10 0 59692  54942.000000  0    4341911.845   3070411.863   4369223.841
10 0 59692  55062.000000  0    3948308.385   2554642.766   5023641.680
10 0 59692  55182.000000  0    3476366.495   2001809.073   5589655.393
10 0 59692  55302.000000  0    2933803.174   1422887.585   6057342.675
10 0 59692  55422.000000  0    2329755.866    829154.949   6418516.673
10 0 59692  55542.000000  0    1674624.054    231966.674   6666861.983
10 0 59692  55662.000000  0     979887.551   -357458.679   6798040.123
10 0 59692  55782.000000  0     257903.324   -928250.221   6809762.112
10 0 59692  55902.000000  0    -478315.083  -1470085.213   6701825.104
10 0 59692  56022.000000  0   -1215332.036  -1973375.593   6476115.017
10 0 59692  56142.000000  0   -1939533.847  -2429437.526   6136573.936
10 0 59692  56262.000000  0   -2637377.824  -2830641.051   5689136.205
10 0 59692  56382.000000  0   -3295646.874  -3170540.860   5141633.372
10 0 59692  56502.000000  0   -3901705.111  -3443983.657   4503662.417
10 0 59692  56622.000000  0   -4443744.790  -3647188.700   3786420.908
10 0 59692  56742.000000  0   -4911021.355  -3777801.043   3002513.471
10 0 59692  56862.000000  0   -5294072.437  -3834916.635   2165731.920
10 0 59692  56982.000000  0   -5584915.989  -3819078.546   1290810.005
10 0 59692  57102.000000  0   -5777220.363  -3732242.304    393158.001
10 0 59692  57222.000000  0   -5866442.934  -3577711.921   -511416.171
10 0 59692  57342.000000  0   -5849933.565  -3360048.568  -1406994.510
10 0 59692  57462.000000  0   -5726998.761  -3084952.913  -2277839.169
10 0 59692  57582.000000  0   -5498925.068  -2759125.035  -3108675.741
10 0 59692  57702.000000  0   -5168963.560  -2390106.846  -3884965.092
10 0 59692  57822.000000  0   -4742275.583  -1986110.354  -4593158.077
10 0 59692  57942.000000  0   -4225842.276  -1555836.972  -5220928.911
10 0 59692  58062.000000  0   -3628340.029  -1108291.510  -5757383.488
10 0 59692  58182.000000  0   -2959985.491   -652595.215  -6193238.582
10 0 59692  58302.000000  0   -2232354.652   -197802.415  -6520971.005
10 0 59692  58422.000000  0   -1458178.801    247275.567  -6734935.825
10 0 59692  58542.000000  0    -651122.335    674235.926  -6831452.276
10 0 59692  58662.000000  0     174453.673   1075238.650  -6808860.018
10 0 59692  58782.000000  0    1003739.907   1443146.093  -6667544.373
10 0 59692  58902.000000  0    1821738.132   1771646.897  -6409933.201
99
